H1 CPF 01  gfz 2021 07 24 12  7052 terrasarx 
H2 0702601  6201 31698    2021 07 24 12 59 42 2021 07 29 00 00 42   120 1 1  0 0 0
H9
10 0 59419  63342.000000  0    6491309.421   1005627.312  -2085920.884
10 0 59419  63462.000000  0    6729931.088    857403.501  -1208189.267
10 0 59419  63582.000000  0    6848299.699    691086.182   -309215.018
10 0 59419  63702.000000  0    6843997.691    511696.510    595198.900
10 0 59419  63822.000000  0    6716861.023    324512.685   1489134.544
10 0 59419  63942.000000  0    6468990.282    134936.293   2356848.259
10 0 59419  64062.000000  0    6104714.207    -51643.068   3183057.512
10 0 59419  64182.000000  0    5630508.599   -229982.704   3953217.423
10 0 59419  64302.000000  0    5054872.554   -395115.822   4653780.883
10 0 59419  64422.000000  0    4388167.697   -542473.417   5272439.781
10 0 59419  64542.000000  0    3642419.871   -667995.631   5798340.389
10 0 59419  64662.000000  0    2831093.032   -768228.766   6222269.263
10 0 59419  64782.000000  0    1968839.084   -840407.593   6536809.194
10 0 59419  64902.000000  0    1071228.974   -882520.945   6736463.801
10 0 59419  65022.000000  0     154467.597   -893359.556   6817748.332
10 0 59419  65142.000000  0    -764899.603   -872544.840   6779245.290
10 0 59419  65262.000000  0   -1670284.074   -820538.934   6621626.738
10 0 59419  65382.000000  0   -2545351.874   -738634.867   6347642.893
10 0 59419  65502.000000  0   -3374316.990   -628927.542   5962077.879
10 0 59419  65622.000000  0   -4142228.015   -494265.841   5471672.738
10 0 59419  65742.000000  0   -4835243.030   -338187.209   4885014.228
10 0 59419  65862.000000  0   -5440886.335   -164835.263   4212389.572
10 0 59419  65982.000000  0   -5948281.623     21137.841   3465609.703
10 0 59419  66102.000000  0   -6348356.298    214682.467   2657804.206
10 0 59419  66222.000000  0   -6634014.292    410473.992   1803190.458
10 0 59419  66342.000000  0   -6800271.278    603043.238    916819.496
10 0 59419  66462.000000  0   -6844348.567    786911.434     14304.063
10 0 59419  66582.000000  0   -6765722.297    956726.933   -888465.429
10 0 59419  66702.000000  0   -6566125.915   1107399.649  -1775609.852
10 0 59419  66822.000000  0   -6249508.339   1234229.548  -2631547.430
10 0 59419  66942.000000  0   -5821949.767   1333027.628  -3441274.839
10 0 59419  67062.000000  0   -5291532.234   1400223.987  -4190634.592
10 0 59419  67182.000000  0   -4668173.748   1432961.313  -4866561.160
10 0 59419  67302.000000  0   -3963430.437   1429172.098  -5457303.740
10 0 59419  67422.000000  0   -3190272.229   1387637.909  -5952621.608
10 0 59419  67542.000000  0   -2362837.672   1308029.352  -6343951.316
10 0 59419  67662.000000  0   -1496171.903   1190927.044  -6624543.704
10 0 59419  67782.000000  0    -605952.769   1037823.418  -6789568.349
10 0 59419  67902.000000  0     291788.011    851104.759  -6836186.623
10 0 59419  68022.000000  0    1180945.426    634015.022  -6763595.891
10 0 59419  68142.000000  0    2045624.214    390600.511  -6573044.008
10 0 59419  68262.000000  0    2870417.059    125636.625  -6267809.512
10 0 59419  68382.000000  0    3640674.905   -155461.767  -5853151.412
10 0 59419  68502.000000  0    4342764.514   -446746.393  -5336226.643
10 0 59419  68622.000000  0    4964310.772   -741855.336  -4725978.709
10 0 59419  68742.000000  0    5494421.498  -1034145.740  -4032994.516
10 0 59419  68862.000000  0    5923887.089  -1316836.304  -3269330.213
10 0 59419  68982.000000  0    6245351.591  -1583157.191  -2448308.843
10 0 59419  69102.000000  0    6453451.031  -1826504.175  -1584291.950
10 0 59419  69222.000000  0    6544914.451  -2040593.009   -692428.382
10 0 59419  69342.000000  0    6518624.736  -2219609.969    211614.431
10 0 59419  69462.000000  0    6375637.180  -2358355.356   1111932.172
10 0 59419  69582.000000  0    6119153.950  -2452375.089   1992672.189
10 0 59419  69702.000000  0    5754454.588  -2498077.995   2838321.826
10 0 59419  69822.000000  0    5288785.024  -2492834.770   3633990.249
10 0 59419  69942.000000  0    4731206.461  -2435056.027   4365676.425
10 0 59419  70062.000000  0    4092412.063  -2324247.989   5020517.486
10 0 59419  70182.000000  0    3384514.471  -2161045.767   5587016.690
10 0 59419  70302.000000  0    2620806.343  -1947222.031   6055243.086
10 0 59419  70422.000000  0    1815504.042  -1685671.300   6417000.124
10 0 59419  70542.000000  0     983478.312  -1380371.521   6665963.303
10 0 59419  70662.000000  0     139976.593  -1036322.849   6797784.907
10 0 59419  70782.000000  0    -699657.117   -659464.541   6810164.408
10 0 59419  70902.000000  0   -1520260.179   -256572.276   6702885.319
10 0 59419  71022.000000  0   -2307123.772    164863.325   6477818.731
10 0 59419  71142.000000  0   -3046255.643    596775.239   6138893.243
10 0 59419  71262.000000  0   -3724629.882   1030673.197   5692031.377
10 0 59419  71382.000000  0   -4330420.319   1457809.020   5145052.627
10 0 59419  71502.000000  0   -4853212.893   1869351.764   4507542.595
10 0 59419  71622.000000  0   -5284192.224   2256569.838   3790689.619
10 0 59419  71742.000000  0   -5616298.023   2611015.335   3007091.058
10 0 59419  71862.000000  0   -5844348.314   2924706.890   2170532.956
10 0 59419  71982.000000  0   -5965127.445   3190307.101   1295745.723
10 0 59419  72102.000000  0   -5977435.204   3401290.287    398138.592
10 0 59419  72222.000000  0   -5882093.625   3552094.733   -506479.823
10 0 59419  72342.000000  0   -5681913.688   3638256.176  -1402188.389
10 0 59419  72462.000000  0   -5381622.651   3656519.975  -2273243.047
10 0 59419  72582.000000  0   -4987750.868   3604927.352  -3104362.086
10 0 59419  72702.000000  0   -4508484.140   3482874.671  -3880998.924
10 0 59419  72822.000000  0   -3953485.164   3291144.245  -4589597.132
10 0 59419  72942.000000  0   -3333690.769   3031907.255  -5217823.440
10 0 59419  73062.000000  0   -2661089.611   2708698.952  -5754774.292
10 0 59419  73182.000000  0   -1948486.793   2326368.307  -6191155.975
10 0 59419  73302.000000  0   -1209256.957   1891001.604  -6519434.866
10 0 59419  73422.000000  0    -457094.269   1409823.053  -6733955.066
10 0 59419  73542.000000  0     294237.309    891074.441  -6831025.776
10 0 59419  73662.000000  0    1031149.210    343876.100  -6808978.127
10 0 59419  73782.000000  0    1740469.289   -221930.250  -6668192.185
10 0 59419  73902.000000  0    2409671.837   -795954.500  -6411089.662
10 0 59419  74022.000000  0    3027094.299  -1367443.842  -6042097.294
10 0 59419  74142.000000  0    3582138.479  -1925478.909  -5567578.192
10 0 59419  74262.000000  0    4065453.825  -2459178.478  -4995734.053
10 0 59419  74382.000000  0    4469099.671  -2957910.890  -4336474.072
10 0 59419  74502.000000  0    4786680.908  -3411505.769  -3601253.249
10 0 59419  74622.000000  0    5013456.836  -3810462.183  -2802882.674
10 0 59419  74742.000000  0    5146420.323  -4146149.933  -1955311.979
10 0 59419  74862.000000  0    5184343.260  -4410997.794  -1073387.341
10 0 59419  74982.000000  0    5127787.456  -4598665.028   -172589.502
10 0 59419  75102.000000  0    4979078.784  -4704191.281    731243.898
10 0 59419  75222.000000  0    4742245.365  -4724119.079   1622203.740
10 0 59419  75342.000000  0    4422920.511  -4656586.238   2484599.938
10 0 59419  75462.000000  0    4028214.180  -4501385.833   3303245.383
10 0 59419  75582.000000  0    3566555.798  -4259992.772   4063730.400
10 0 59419  75702.000000  0    3047511.585  -3935555.882   4752681.231
10 0 59419  75822.000000  0    2481582.477  -3532855.293   5357996.621
10 0 59419  75942.000000  0    1879987.972  -3058228.269   5869059.180
10 0 59419  76062.000000  0    1254439.424  -2519463.624   6276918.081
10 0 59419  76182.000000  0     616909.402  -1925668.943   6574439.478
10 0 59419  76302.000000  0     -20598.977  -1287113.278   6756424.943
10 0 59419  76422.000000  0    -646277.591   -615047.375   6819696.976
10 0 59419  76542.000000  0   -1248730.903     78495.664   6763150.685
10 0 59419  76662.000000  0   -1817182.723    780915.413   6587771.814
10 0 59419  76782.000000  0   -2341668.423   1479272.289   6296620.604
10 0 59419  76902.000000  0   -2813210.134   2160524.928   5894781.776
10 0 59419  77022.000000  0   -3223971.993   2811773.730   5389281.682
10 0 59419  77142.000000  0   -3567393.885   3420506.979   4788971.918
10 0 59419  77262.000000  0   -3838300.611   3974844.236   4104380.083
10 0 59419  77382.000000  0   -4032983.779   4463773.261   3347529.607
10 0 59419  77502.000000  0   -4149254.613   4877374.953   2531730.243
10 0 59419  77622.000000  0   -4186465.517   5207029.853   1671341.832
10 0 59419  77742.000000  0   -4145500.099   5445601.283    781517.632
10 0 59419  77862.000000  0   -4028732.922   5587591.293   -122068.360
10 0 59419  77982.000000  0   -3839958.559   5629265.712  -1023506.598
10 0 59419  78102.000000  0   -3584290.363   5568742.347  -1906942.861
10 0 59419  78222.000000  0   -3268032.369   5406040.392  -2756865.774
10 0 59419  78342.000000  0   -2898528.163   5143092.309  -3558384.642
10 0 59419  78462.000000  0   -2483992.501   4783715.950  -4297492.663
10 0 59419  78582.000000  0   -2033328.882   4333550.123  -4961309.474
10 0 59419  78702.000000  0   -1555938.671   3799956.954  -5538298.542
10 0 59419  78822.000000  0   -1061526.301   3191893.851  -6018459.803
10 0 59419  78942.000000  0    -559903.302   2519755.558  -6393493.595
10 0 59419  79062.000000  0     -60795.910   1795191.433  -6656932.128
10 0 59419  79182.000000  0     426339.050   1030902.802  -6804240.176
10 0 59419  79302.000000  0     892488.748    240422.617  -6832885.485
10 0 59419  79422.000000  0    1329247.517   -562120.006  -6742377.651
10 0 59419  79542.000000  0    1728964.313  -1362246.937  -6534274.034
10 0 59419  79662.000000  0    2084873.480  -2145385.012  -6212155.674
10 0 59419  79782.000000  0    2391208.227  -2897124.927  -5781572.932
99
